; generated by PrusaSlicer 2.9.0 on 2026-05-14 at 04:03:25 UTC

; 

; external perimeters extrusion width = 0.45mm
; perimeters extrusion width = 0.45mm
; infill extrusion width = 0.45mm
; solid infill extrusion width = 0.45mm
; top infill extrusion width = 0.40mm
; first layer extrusion width = 0.70mm

M104 S200 ; set temperature
;TYPE:Custom
G28 ; home all axes
G1 Z5 F5000 ; lift nozzle
M109 S200 ; set temperature and wait for it to be reached
G21 ; set units to millimeters
G90 ; use absolute coordinates
M82 ; use absolute distances for extrusion
G92 E0
; Filament gcode
M107
;LAYER_CHANGE
;Z:0.35
;HEIGHT:0.35
G1 E-2 F2400
G1 Z2.35 F7800
G1 X48.145 Y11.365
G1 Z.35
G1 E.00001 F2400
;TYPE:Skirt/Brim
;WIDTH:0.7
G1 F1800
G1 X48.758 Y8.766 E.24281
G1 X49.553 Y7.177 E.40437
G1 X50.893 Y5.384 E.60791
G1 X52.774 Y4.172 E.81138
G1 X54.96 Y3.692 E1.01489
G1 X58.002 Y4.344 E1.29778
G1 X147.604 Y48.748 E10.39084
G1 X149.265 Y49.941 E10.57679
G1 X150.059 Y50.735 E10.67889
G1 X151.336 Y52.573 E10.8824
G1 X151.908 Y55.199 E11.12678
G1 X151.908 Y144.801 E19.27425
G1 X151.511 Y147.004 E19.47779
G1 X150.059 Y149.265 E19.72213
G1 X149.265 Y150.059 E19.82423
G1 X147.604 Y151.252 E20.01018
G1 X58.002 Y195.656 E29.10324
G1 X55.852 Y196.279 E29.30678
G1 X53.619 Y196.112 E29.51039
G1 X51.586 Y195.176 E29.7139
G1 X49.553 Y192.823 E29.99666
G1 X48.758 Y191.234 E30.15822
G1 X48.092 Y188.411 E30.42196
G1 X48.092 Y11.589 E46.50031
G1 X48.131 Y11.424 E46.51573
G1 E44.51573 F2400
G92 E0
G1 X48.131 Y11.424 Z2.35 F7800
G92 E0
G1 X55.596 Y11.191
G1 Z.35
G1 E2 F2400
;TYPE:Perimeter
;WIDTH:0.526351
G1 F1800
G1 X142.883 Y54.835 E8.40789
G1 X142.883 Y54.835 F7800
G1 X143.012 Y56.284
;WIDTH:0.582405
G1 F1800
G1 X143.207 Y55.94 E8.43708
;WIDTH:0.625588
G1 X143.403 Y55.596 E8.46879
G1 X143.143 Y55.215 E8.50574
;WIDTH:0.575964
G1 X142.883 Y54.835 E8.5393
G1 X143.342 Y55.092 E8.57764
;WIDTH:0.625588
G1 X143.801 Y55.35 E8.61982
G1 X143.922 Y55.366 E8.6296
;WIDTH:0.58135
G1 X144.043 Y55.383 E8.6386
;WIDTH:0.537112
G1 X144.164 Y55.4 E8.64681
;WIDTH:0.492875
G1 X144.285 Y55.417 E8.65424
;WIDTH:0.448637
G1 X144.406 Y55.434 E8.66088
;WIDTH:0.4044
G1 X144.563 Y55.596 E8.67169
G1 X144.406 Y55.758 E8.6825
;WIDTH:0.404747
G1 X144.335 Y55.76 E8.68591
;WIDTH:0.448915
G1 X144.229 Y55.776 E8.69174
;WIDTH:0.493083
G1 X144.122 Y55.793 E8.69833
;WIDTH:0.537251
G1 X144.015 Y55.809 E8.70561
;WIDTH:0.581419
G1 X143.908 Y55.826 E8.71359
;WIDTH:0.625588
G1 X143.801 Y55.842 E8.72226
G1 X143.407 Y56.063 E8.75845
;WIDTH:0.582405
G1 X143.065 Y56.255 E8.7874
G1 E6.7874 F2400
G92 E0
G1 X143.065 Y56.255 Z2.35 F7800
G1 X55.596 Y188.809
G1 Z.35
G1 E2 F2400
;WIDTH:0.526351
G1 F1800
G1 X142.883 Y145.165 E8.40789
;WIDTH:0.539229
G1 X143.012 Y145.093 E8.41787
G1 E6.41787 F2400
G92 E0
G1 X143.012 Y145.093 Z2.35 F7800
G1 X56.652 Y100.08
G1 Z.35
G1 E2 F2400
;WIDTH:0.625589
G1 F1800
G1 X56.857 Y100.38 E2.02911
;WIDTH:0.575967
G1 X57.117 Y100.761 E2.06273
G1 X56.658 Y100.503 E2.1011
;WIDTH:0.625589
G1 X56.199 Y100.246 E2.14324
G1 X56.078 Y100.229 E2.15303
;WIDTH:0.581352
G1 X55.957 Y100.212 E2.16203
;WIDTH:0.537115
G1 X55.836 Y100.196 E2.17024
;WIDTH:0.492879
G1 X55.715 Y100.179 E2.17767
;WIDTH:0.448642
G1 X55.594 Y100.162 E2.18431
;WIDTH:0.404406
G1 X55.437 Y100 E2.19512
G1 X55.594 Y99.838 E2.20593
;WIDTH:0.404746
G1 X55.665 Y99.836 E2.20934
;WIDTH:0.448914
G1 X55.771 Y99.819 E2.21518
;WIDTH:0.493083
G1 X55.878 Y99.803 E2.22176
;WIDTH:0.537251
G1 X55.985 Y99.787 E2.22904
;WIDTH:0.58142
G1 X56.092 Y99.77 E2.23702
;WIDTH:0.625589
G1 X56.199 Y99.754 E2.24569
G1 X56.593 Y99.533 E2.28188
;WIDTH:0.582405
G1 X56.988 Y99.311 E2.31533
G1 X56.792 Y99.656 E2.34462
;WIDTH:0.625589
G1 X56.597 Y100 E2.37629
G1 X56.618 Y100.03 E2.37922
G1 E.37922 F2400
G92 E0
G1 X56.618 Y100.03 Z2.35 F7800
G1 X143.012 Y56.284
G1 Z.35
G1 E2 F2400
;WIDTH:0.539223
G1 F1800
G1 X142.883 Y56.356 E2.00998
;WIDTH:0.526333
G1 X57.117 Y99.239 E8.30595
;WIDTH:0.539221
G1 X56.988 Y99.311 E8.31593
G1 E6.31593 F2400
G92 E0
G1 X56.988 Y99.311 Z2.35 F7800
G1 X142.883 Y143.644
G1 Z.35
G1 E2 F2400
;WIDTH:0.575994
G1 F1800
G1 X143.342 Y143.901 E2.03834
;WIDTH:0.625604
G1 X143.801 Y144.158 E2.08048
G1 X143.922 Y144.175 E2.09027
;WIDTH:0.581369
G1 X144.043 Y144.192 E2.09927
;WIDTH:0.537135
G1 X144.164 Y144.209 E2.10748
;WIDTH:0.492901
G1 X144.285 Y144.226 E2.11491
;WIDTH:0.448667
G1 X144.406 Y144.242 E2.12154
;WIDTH:0.404433
G1 X144.563 Y144.404 E2.13235
G1 X144.406 Y144.566 E2.14316
;WIDTH:0.404773
G1 X144.335 Y144.568 E2.14657
;WIDTH:0.448939
G1 X144.229 Y144.585 E2.15241
;WIDTH:0.493105
G1 X144.122 Y144.601 E2.15899
;WIDTH:0.537271
G1 X144.015 Y144.618 E2.16628
;WIDTH:0.581437
G1 X143.908 Y144.634 E2.17425
;WIDTH:0.625604
G1 X143.801 Y144.65 E2.18292
G1 X143.407 Y144.872 E2.21915
;WIDTH:0.582416
G1 X143.012 Y145.093 E2.25256
G1 X143.207 Y144.749 E2.28175
;WIDTH:0.625604
G1 X143.403 Y144.404 E2.31353
G1 X143.143 Y144.024 E2.35041
;WIDTH:0.575994
G1 X142.917 Y143.693 E2.37962
G1 E.37962 F2400
G92 E0
G1 X142.917 Y143.693 Z2.35 F7800
G1 X57.117 Y100.761
G1 Z.35
G1 E2 F2400
;WIDTH:0.526385
G1 F1800
G1 X142.883 Y143.644 E8.29669
G1 E6.29669 F2400
G92 E0
G1 X142.883 Y143.644 Z2.35 F7800
G1 X57.201 Y99.974
G1 Z.35
G1 E2 F2400
;TYPE:External perimeter
;WIDTH:0.7
G1 F1800
G1 X57.185 Y100 E2.00278
G1 X57.358 Y100.279 E2.03263
G1 X144.064 Y143.632 E10.84736
G1 X144.41 Y143.766 E10.8811
G1 X144.645 Y143.682 E10.90379
G1 X144.805 Y143.978 E10.93439
G1 X145.126 Y144.164 E10.96812
G1 X145.076 Y144.265 E10.97837
G1 X145.043 Y144.404 E10.99136
G1 X145.126 Y144.645 E11.01454
G1 X144.851 Y144.788 E11.04272
G1 X144.645 Y145.126 E11.07871
G1 X144.46 Y145.048 E11.09697
G1 X144.265 Y145.076 E11.11488
G1 X55.355 Y189.53 E20.15363
G1 X54.874 Y188.568 E20.25143
G1 X142.642 Y144.684 E29.17413
G1 X142.815 Y144.404 E29.20406
G1 X142.642 Y144.125 E29.23391
G1 X55.936 Y100.772 E38.04864
G1 X55.59 Y100.639 E38.08235
G1 X55.355 Y100.722 E38.10501
G1 X55.195 Y100.426 E38.13561
G1 X54.874 Y100.241 E38.1693
G1 X54.957 Y100 E38.19248
G1 X54.874 Y99.759 E38.21566
G1 X55.149 Y99.616 E38.24384
G1 X55.355 Y99.278 E38.27983
G1 X55.54 Y99.357 E38.29812
G1 X55.735 Y99.329 E38.31603
G1 X142.642 Y55.875 E47.15122
G1 X142.815 Y55.596 E47.18107
G1 X142.642 Y55.316 E47.211
G1 X54.874 Y11.432 E56.1337
G1 X55.355 Y10.47 E56.2315
G1 X144.064 Y54.824 E65.24984
G1 X144.41 Y54.957 E65.28355
G1 X144.645 Y54.874 E65.30621
G1 X144.805 Y55.169 E65.33673
G1 X145.126 Y55.355 E65.37046
G1 X145.043 Y55.596 E65.39364
G1 X145.126 Y55.836 E65.41673
G1 X144.851 Y55.98 E65.44496
G1 X144.645 Y56.318 E65.48095
G1 X144.46 Y56.239 E65.49924
G1 X144.265 Y56.267 E65.51715
G1 X57.358 Y99.721 E74.35234
G1 X57.233 Y99.922 E74.37386
G1 X57.391 Y100.29 F7800
G1 E72.37386 F2400
G92 E0
M107
;TYPE:Custom
; Filament-specific end gcode 
;END gcode for filament
M104 S0 ; turn off temperature
G28 X0  ; home X axis
M84     ; disable motors
; objects_info = {"objects":[]}
; filament used [mm] = 145.47
; filament used [cm3] = 0.35
; total filament used [g] = 0.00
; total filament cost = 0.00
; total filament used for wipe tower [g] = 0.00
; estimated printing time (normal mode) = 1m 9s
; estimated first layer printing time (normal mode) = 1m 9s

; prusaslicer_config = begin
; arc_fitting = disabled
; autoemit_temperature_commands = 1
; automatic_extrusion_widths = 0
; automatic_infill_combination = 0
; automatic_infill_combination_max_layer_height = 100%
; avoid_crossing_curled_overhangs = 0
; avoid_crossing_perimeters = 0
; avoid_crossing_perimeters_max_detour = 0
; bed_shape = 0x0,200x0,200x200,0x200
; bed_temperature = 0
; before_layer_gcode = 
; between_objects_gcode = 
; binary_gcode = 0
; bottom_fill_pattern = monotonic
; bottom_solid_layers = 3
; bottom_solid_min_thickness = 0
; bridge_acceleration = 0
; bridge_angle = 0
; bridge_fan_speed = 100
; bridge_flow_ratio = 1
; bridge_speed = 60
; brim_separation = 0
; brim_type = outer_only
; brim_width = 0
; chamber_minimal_temperature = 0
; chamber_temperature = 0
; color_change_gcode = M600
; colorprint_heights = 
; complete_objects = 0
; cooling = 1
; cooling_tube_length = 5
; cooling_tube_retraction = 91.5
; default_acceleration = 0
; deretract_speed = 0
; disable_fan_first_layers = 3
; dont_support_bridges = 1
; draft_shield = disabled
; duplicate_distance = 6
; elefant_foot_compensation = 0
; enable_dynamic_fan_speeds = 0
; enable_dynamic_overhang_speeds = 0
; end_filament_gcode = "; Filament-specific end gcode \n;END gcode for filament\n"
; end_gcode = M104 S0 ; turn off temperature\nG28 X0  ; home X axis\nM84     ; disable motors\n
; ensure_vertical_shell_thickness = enabled
; external_perimeter_acceleration = 0
; external_perimeter_extrusion_width = 0
; external_perimeter_speed = 50%
; external_perimeters_first = 0
; extra_loading_move = -2
; extra_perimeters = 1
; extra_perimeters_on_overhangs = 0
; extruder_clearance_height = 20
; extruder_clearance_radius = 20
; extruder_colour = ""
; extruder_offset = 0x0
; extrusion_axis = E
; extrusion_multiplier = 1
; extrusion_width = 0
; fan_always_on = 0
; fan_below_layer_time = 60
; filament_abrasive = 0
; filament_colour = #29B2B2
; filament_cooling_final_speed = 3.4
; filament_cooling_initial_speed = 2.2
; filament_cooling_moves = 4
; filament_cost = 0
; filament_density = 0
; filament_diameter = 1.75
; filament_infill_max_crossing_speed = 0
; filament_infill_max_speed = 0
; filament_load_time = 0
; filament_loading_speed = 28
; filament_loading_speed_start = 3
; filament_max_volumetric_speed = 0
; filament_minimal_purge_on_wipe_tower = 15
; filament_multitool_ramming = 0
; filament_multitool_ramming_flow = 10
; filament_multitool_ramming_volume = 10
; filament_notes = ""
; filament_purge_multiplier = 100%
; filament_ramming_parameters = "120 100 6.6 6.8 7.2 7.6 7.9 8.2 8.7 9.4 9.9 10.0| 0.05 6.6 0.45 6.8 0.95 7.8 1.45 8.3 1.95 9.7 2.45 10 2.95 7.6 3.45 7.6 3.95 7.6 4.45 7.6 4.95 7.6"
; filament_seam_gap_distance = 15%
; filament_settings_id = ""
; filament_shrinkage_compensation_xy = 0%
; filament_shrinkage_compensation_z = 0%
; filament_soluble = 0
; filament_spool_weight = 0
; filament_stamping_distance = 0
; filament_stamping_loading_speed = 20
; filament_toolchange_delay = 0
; filament_type = PLA
; filament_unload_time = 0
; filament_unloading_speed = 90
; filament_unloading_speed_start = 100
; fill_angle = 45
; fill_density = 20%
; fill_pattern = stars
; first_layer_acceleration = 0
; first_layer_acceleration_over_raft = 0
; first_layer_bed_temperature = 0
; first_layer_extrusion_width = 200%
; first_layer_height = 0.35
; first_layer_speed = 30
; first_layer_speed_over_raft = 30
; first_layer_temperature = 200
; full_fan_speed_layer = 0
; fuzzy_skin = none
; fuzzy_skin_point_dist = 0.8
; fuzzy_skin_thickness = 0.3
; gap_fill_enabled = 1
; gap_fill_speed = 20
; gcode_comments = 0
; gcode_flavor = reprap
; gcode_label_objects = disabled
; gcode_resolution = 0.0125
; gcode_substitutions = 
; high_current_on_filament_swap = 0
; idle_temperature = nil
; infill_acceleration = 0
; infill_anchor = 600%
; infill_anchor_max = 50
; infill_every_layers = 1
; infill_extruder = 1
; infill_extrusion_width = 0
; infill_first = 0
; infill_overlap = 25%
; infill_speed = 80
; interface_shells = 0
; ironing = 0
; ironing_flowrate = 15%
; ironing_spacing = 0.1
; ironing_speed = 15
; ironing_type = top
; layer_gcode = 
; layer_height = 0.3
; machine_limits_usage = time_estimate_only
; machine_max_acceleration_e = 10000,5000
; machine_max_acceleration_extruding = 1500,1250
; machine_max_acceleration_retracting = 1500,1250
; machine_max_acceleration_travel = 1500,1250
; machine_max_acceleration_x = 9000,1000
; machine_max_acceleration_y = 9000,1000
; machine_max_acceleration_z = 500,200
; machine_max_feedrate_e = 120,120
; machine_max_feedrate_x = 500,200
; machine_max_feedrate_y = 500,200
; machine_max_feedrate_z = 12,12
; machine_max_jerk_e = 2.5,2.5
; machine_max_jerk_x = 10,10
; machine_max_jerk_y = 10,10
; machine_max_jerk_z = 0.2,0.4
; machine_min_extruding_rate = 0,0
; machine_min_travel_rate = 0,0
; max_fan_speed = 100
; max_layer_height = 0
; max_print_height = 200
; max_print_speed = 80
; max_volumetric_extrusion_rate_slope_negative = 0
; max_volumetric_extrusion_rate_slope_positive = 0
; max_volumetric_speed = 0
; min_bead_width = 85%
; min_fan_speed = 35
; min_feature_size = 25%
; min_layer_height = 0.07
; min_print_speed = 10
; min_skirt_length = 0
; mmu_segmented_region_interlocking_depth = 0
; mmu_segmented_region_max_width = 0
; multimaterial_purging = 140
; notes = 
; nozzle_diameter = 0.4
; nozzle_high_flow = 0
; only_one_perimeter_first_layer = 0
; only_retract_when_crossing_perimeters = 0
; ooze_prevention = 0
; output_filename_format = [input_filename_base].gcode
; overhang_fan_speed_0 = 0
; overhang_fan_speed_1 = 0
; overhang_fan_speed_2 = 0
; overhang_fan_speed_3 = 0
; overhang_speed_0 = 15
; overhang_speed_1 = 15
; overhang_speed_2 = 20
; overhang_speed_3 = 25
; overhangs = 1
; parking_pos_retraction = 92
; pause_print_gcode = M601
; perimeter_acceleration = 0
; perimeter_extruder = 1
; perimeter_extrusion_width = 0
; perimeter_generator = arachne
; perimeter_speed = 30
; perimeters = 3
; physical_printer_settings_id = 
; post_process = 
; prefer_clockwise_movements = 0
; print_settings_id = 
; printer_model = 
; printer_notes = 
; printer_settings_id = 
; printer_technology = FFF
; raft_contact_distance = 0.1
; raft_expansion = 1.5
; raft_first_layer_density = 90%
; raft_first_layer_expansion = 3
; raft_layers = 0
; remaining_times = 0
; resolution = 0
; retract_before_travel = 2
; retract_before_wipe = 0%
; retract_layer_change = 0
; retract_length = 2
; retract_length_toolchange = 10
; retract_lift = 2
; retract_lift_above = 0
; retract_lift_below = 0
; retract_restart_extra = 0
; retract_restart_extra_toolchange = 0
; retract_speed = 40
; scarf_seam_entire_loop = 0
; scarf_seam_length = 20
; scarf_seam_max_segment_length = 1
; scarf_seam_on_inner_perimeters = 0
; scarf_seam_only_on_smooth = 1
; scarf_seam_placement = nowhere
; scarf_seam_start_height = 0%
; seam_gap_distance = 15%
; seam_position = aligned
; silent_mode = 1
; single_extruder_multi_material = 0
; single_extruder_multi_material_priming = 1
; skirt_distance = 6
; skirt_height = 1
; skirts = 1
; slice_closing_radius = 0.049
; slicing_mode = regular
; slowdown_below_layer_time = 5
; small_perimeter_speed = 15
; solid_infill_acceleration = 0
; solid_infill_below_area = 70
; solid_infill_every_layers = 0
; solid_infill_extruder = 1
; solid_infill_extrusion_width = 0
; solid_infill_speed = 20
; spiral_vase = 0
; staggered_inner_seams = 0
; standby_temperature_delta = -5
; start_filament_gcode = "; Filament gcode\n"
; start_gcode = G28 ; home all axes\nG1 Z5 F5000 ; lift nozzle\n
; support_material = 0
; support_material_angle = 0
; support_material_auto = 1
; support_material_bottom_contact_distance = 0
; support_material_bottom_interface_layers = -1
; support_material_buildplate_only = 0
; support_material_closing_radius = 2
; support_material_contact_distance = 0.2
; support_material_enforce_layers = 0
; support_material_extruder = 1
; support_material_extrusion_width = 0
; support_material_interface_contact_loops = 0
; support_material_interface_extruder = 1
; support_material_interface_layers = 3
; support_material_interface_pattern = rectilinear
; support_material_interface_spacing = 0
; support_material_interface_speed = 100%
; support_material_pattern = rectilinear
; support_material_spacing = 2.5
; support_material_speed = 60
; support_material_style = grid
; support_material_synchronize_layers = 0
; support_material_threshold = 0
; support_material_with_sheath = 1
; support_material_xy_spacing = 50%
; support_tree_angle = 40
; support_tree_angle_slow = 25
; support_tree_branch_diameter = 2
; support_tree_branch_diameter_angle = 5
; support_tree_branch_diameter_double_wall = 3
; support_tree_branch_distance = 1
; support_tree_tip_diameter = 0.8
; support_tree_top_rate = 15%
; temperature = 200
; template_custom_gcode = 
; thick_bridges = 1
; thin_walls = 1
; thumbnails = 
; thumbnails_format = PNG
; toolchange_gcode = 
; top_fill_pattern = monotonic
; top_infill_extrusion_width = 0
; top_one_perimeter_type = none
; top_solid_infill_acceleration = 0
; top_solid_infill_speed = 15
; top_solid_layers = 3
; top_solid_min_thickness = 0
; travel_acceleration = 0
; travel_lift_before_obstacle = 0
; travel_max_lift = 0
; travel_ramping_lift = 0
; travel_slope = 0
; travel_speed = 130
; travel_speed_z = 0
; use_firmware_retraction = 0
; use_relative_e_distances = 0
; use_volumetric_e = 0
; variable_layer_height = 1
; wall_distribution_count = 1
; wall_transition_angle = 10
; wall_transition_filter_deviation = 25%
; wall_transition_length = 100%
; wipe = 0
; wipe_into_infill = 0
; wipe_into_objects = 0
; wipe_tower = 0
; wipe_tower_acceleration = 0
; wipe_tower_bridging = 10
; wipe_tower_brim_width = 2
; wipe_tower_cone_angle = 0
; wipe_tower_extra_flow = 100%
; wipe_tower_extra_spacing = 100%
; wipe_tower_extruder = 0
; wipe_tower_no_sparse_layers = 0
; wipe_tower_width = 60
; wiping_volumes_matrix = 0,140,140,140,140,140,0,140,140,140,140,140,0,140,140,140,140,140,0,140,140,140,140,140,0
; wiping_volumes_use_custom_matrix = 0
; xy_size_compensation = 0
; z_offset = 0
; prusaslicer_config = end
