; generated by PrusaSlicer 2.9.0 on 2026-05-14 at 06:09:29 UTC

; 

; external perimeters extrusion width = 0.45mm
; perimeters extrusion width = 0.45mm
; infill extrusion width = 0.45mm
; solid infill extrusion width = 0.45mm
; top infill extrusion width = 0.40mm
; first layer extrusion width = 0.70mm

M104 S200 ; set temperature
;TYPE:Custom
G28 ; home all axes
G1 Z5 F5000 ; lift nozzle
M109 S200 ; set temperature and wait for it to be reached
G21 ; set units to millimeters
G90 ; use absolute coordinates
M82 ; use absolute distances for extrusion
G92 E0
; Filament gcode
M107
;LAYER_CHANGE
;Z:0.35
;HEIGHT:0.35
G1 E-2 F2400
G1 Z2.35 F7800
G1 X46.146 Y.497
G1 Z.35
G1 E.00001 F2400
;TYPE:Skirt/Brim
;WIDTH:0.7
G1 F1800
G1 X46.543 Y-1.706 E.20354
G1 X47.684 Y-3.631 E.40702
G1 X49.425 Y-5.038 E.61056
G1 X52.416 Y-5.815 E.89156
G1 X126.547 Y-6.312 E7.63241
G1 X127.541 Y-6.312 E7.72279
G1 X129.744 Y-5.916 E7.92632
G1 X131.67 Y-4.775 E8.12988
G1 X133.077 Y-3.034 E8.33342
G1 X133.854 Y0 E8.6182
G1 X133.854 Y180 E24.98552
G1 X133.457 Y182.203 E25.18906
G1 X132.316 Y184.129 E25.39262
G1 X130.575 Y185.535 E25.59611
G1 X127.541 Y186.312 E25.88089
G1 X52.416 Y185.815 E32.71212
G1 X50.216 Y185.403 E32.91564
G1 X48.298 Y184.25 E33.11913
G1 X46.903 Y182.5 E33.32263
G1 X46.146 Y179.503 E33.6037
G1 X46.146 Y.557 E49.87518
G1 E47.87518 F2400
G92 E0
G1 X46.146 Y.557 Z2.35 F7800
G92 E0
G1 X100.583 Y177.903
G1 Z.35
G1 E2 F2400
;TYPE:Perimeter
;WIDTH:0.7
G1 F1800
G1 X54.058 Y177.903 E6.2305
G1 X54.058 Y131.379 E10.46091
G1 X100.583 Y131.379 E14.69141
G1 X100.583 Y154.641 E16.80661
G1 X100.583 Y177.843 E18.91636
G1 X100.583 Y177.843 F7800
G1 X101.207 Y178.528
G1 F1800
G1 X53.433 Y178.528 E23.26043
G1 X53.433 Y130.754 E27.6045
G1 X101.207 Y130.754 E31.94857
G1 X101.207 Y154.641 E34.1206
G1 X101.207 Y178.468 E36.28718
G1 X101.207 Y178.468 F7800
G1 X101.832 Y179.153
;TYPE:External perimeter
G1 F1800
G1 X52.809 Y179.153 E40.74482
G1 X52.809 Y130.129 E45.20255
G1 X101.832 Y130.129 E49.66019
G1 X101.832 Y154.641 E51.88905
G1 X101.832 Y179.093 E54.11246
G1 X101.437 Y179.152 F7800
G1 E52.11246 F2400
G92 E0
G1 Z2.35 F7800
G1 X100.395 Y132.837
G1 Z.35
G1 E2 F2400
;TYPE:Solid infill
;WIDTH:0.703508
G1 F1800
G1 X99.406 Y131.847 E2.12796
G1 X98.517 Y131.847 E2.20925
G1 X100.114 Y133.444 E2.41577
G1 X100.114 Y134.333 E2.49706
G1 X97.628 Y131.847 E2.81854
G1 X96.74 Y131.847 E2.89974
G1 X100.114 Y135.222 E3.33612
G1 X100.114 Y136.11 E3.41732
G1 X95.851 Y131.847 E3.96859
G1 X94.962 Y131.847 E4.04988
G1 X100.114 Y136.999 E4.71611
G1 X100.114 Y137.888 E4.7974
G1 X94.074 Y131.847 E5.57853
G1 X93.185 Y131.847 E5.65982
G1 X100.114 Y138.776 E6.55585
G1 X100.114 Y139.665 E6.63714
G1 X92.296 Y131.847 E7.64813
G1 X91.407 Y131.847 E7.72942
G1 X100.114 Y140.554 E8.85537
G1 X100.114 Y141.443 E8.93666
G1 X90.519 Y131.847 E10.17751
G1 X89.63 Y131.847 E10.2588
G1 X100.114 Y142.331 E11.61455
G1 X100.114 Y143.22 E11.69584
G1 X88.741 Y131.847 E13.16655
G1 X87.853 Y131.847 E13.24775
G1 X100.114 Y144.109 E14.83335
G1 X100.114 Y144.997 E14.91455
G1 X86.964 Y131.847 E16.61505
G1 X86.075 Y131.847 E16.69634
G1 X100.114 Y145.886 E18.5118
G1 X100.114 Y146.775 E18.59309
G1 X85.187 Y131.847 E20.52345
G1 X84.298 Y131.847 E20.60474
G1 X100.114 Y147.663 E22.65
G1 X100.114 Y148.552 E22.73129
G1 X83.409 Y131.847 E24.89151
G1 X82.521 Y131.847 E24.97271
G1 X100.114 Y149.441 E27.24783
G1 X100.114 Y150.329 E27.32903
G1 X81.632 Y131.847 E29.71904
G1 X80.743 Y131.847 E29.80033
G1 X100.114 Y151.218 E32.3053
G1 X100.114 Y152.107 E32.38659
G1 X79.855 Y131.847 E35.00646
G1 X78.966 Y131.847 E35.08775
G1 X100.114 Y152.995 E37.82252
G1 X100.114 Y153.884 E37.90381
G1 X78.077 Y131.847 E40.75354
G1 X77.188 Y131.847 E40.83483
G1 X100.114 Y154.773 E43.79952
G1 X100.114 Y155.662 E43.88081
G1 X76.3 Y131.847 E46.9604
G1 X75.411 Y131.847 E47.04169
G1 X100.114 Y156.55 E50.23617
G1 X100.114 Y157.439 E50.31746
G1 X74.522 Y131.847 E53.62691
G1 X73.634 Y131.847 E53.70811
G1 X100.114 Y158.328 E57.13245
G1 X100.114 Y159.216 E57.21365
G1 X72.745 Y131.847 E60.75289
G1 X71.856 Y131.847 E60.83418
G1 X100.114 Y160.105 E64.48838
G1 X100.114 Y160.994 E64.56967
G1 X70.968 Y131.847 E68.33877
G1 X70.079 Y131.847 E68.42006
G1 X100.114 Y161.882 E72.30406
G1 X100.114 Y162.771 E72.38535
G1 X69.19 Y131.847 E76.38431
G1 X68.302 Y131.847 E76.46551
G1 X100.114 Y163.66 E80.57936
G1 X100.114 Y164.548 E80.66056
G1 X67.413 Y131.847 E84.88931
G1 X66.524 Y131.847 E84.9706
G1 X100.114 Y165.437 E89.31431
G1 X100.114 Y166.326 E89.3956
G1 X65.636 Y131.847 E93.85421
G1 X64.747 Y131.847 E93.9355
G1 X100.114 Y167.214 E98.50901
G1 X100.114 Y168.103 E98.5903
G1 X63.858 Y131.847 E103.27877
G1 X62.969 Y131.847 E103.36006
G1 X100.114 Y168.992 E108.16349
G1 X100.114 Y169.881 E108.24478
G1 X62.081 Y131.847 E113.16311
G1 X61.192 Y131.847 E113.2444
G1 X100.114 Y170.769 E118.27762
G1 X100.114 Y171.658 E118.35891
G1 X60.303 Y131.847 E123.5071
G1 X59.415 Y131.847 E123.5883
G1 X100.114 Y172.547 E128.85138
G1 X100.114 Y173.435 E128.93258
G1 X58.526 Y131.847 E134.31056
G1 X57.637 Y131.847 E134.39185
G1 X100.114 Y174.324 E139.88479
G1 X100.114 Y175.213 E139.96608
G1 X56.749 Y131.847 E145.57392
G1 X55.86 Y131.847 E145.65521
G1 X100.114 Y176.101 E151.37795
G1 X100.114 Y176.99 E151.45924
G1 X54.971 Y131.847 E157.29694
G1 X54.527 Y131.847 E157.33754
G1 X54.527 Y132.292 E157.37823
G1 X99.67 Y177.434 E163.21586
G1 X98.781 Y177.434 E163.29715
G1 X54.527 Y133.181 E169.01982
G1 X54.527 Y134.069 E169.10102
G1 X97.892 Y177.434 E174.70879
G1 X97.003 Y177.434 E174.79008
G1 X54.527 Y134.958 E180.28289
G1 X54.527 Y135.847 E180.36418
G1 X96.115 Y177.434 E185.7421
G1 X95.226 Y177.434 E185.82339
G1 X54.527 Y136.735 E191.08641
G1 X54.527 Y137.624 E191.1677
G1 X94.337 Y177.434 E196.31576
G1 X93.449 Y177.434 E196.39696
G1 X54.527 Y138.513 E201.43012
G1 X54.527 Y139.401 E201.51132
G1 X92.56 Y177.434 E206.42958
G1 X91.671 Y177.434 E206.51087
G1 X54.527 Y140.29 E211.31417
G1 X54.527 Y141.179 E211.39546
G1 X90.783 Y177.434 E216.08386
G1 X89.894 Y177.434 E216.16515
G1 X54.527 Y142.067 E220.73866
G1 X54.527 Y142.956 E220.81995
G1 X89.005 Y177.434 E225.2785
G1 X88.117 Y177.434 E225.3597
G1 X54.527 Y143.845 E229.70335
G1 X54.527 Y144.733 E229.78455
G1 X87.228 Y177.434 E234.0133
G1 X86.339 Y177.434 E234.09459
G1 X54.527 Y145.622 E238.20838
G1 X54.527 Y146.511 E238.28967
G1 X85.45 Y177.434 E242.2885
G1 X84.562 Y177.434 E242.3697
G1 X54.527 Y147.4 E246.25363
G1 X54.527 Y148.288 E246.33483
G1 X83.673 Y177.434 E250.10386
G1 X82.784 Y177.434 E250.18515
G1 X54.527 Y149.177 E253.83922
G1 X54.527 Y150.066 E253.92051
G1 X81.896 Y177.434 E257.45969
G1 X81.007 Y177.434 E257.54098
G1 X54.527 Y150.954 E260.96526
G1 X54.527 Y151.843 E261.04655
G1 X80.118 Y177.434 E264.35587
G1 X79.23 Y177.434 E264.43707
G1 X54.527 Y152.732 E267.63149
G1 X54.527 Y153.62 E267.71269
G1 X78.341 Y177.434 E270.79221
G1 X77.452 Y177.434 E270.8735
G1 X54.527 Y154.509 E273.83806
G1 X54.527 Y155.398 E273.91935
G1 X76.564 Y177.434 E276.76901
G1 X75.675 Y177.434 E276.8503
G1 X54.527 Y156.286 E279.58507
G1 X54.527 Y157.175 E279.66636
G1 X74.786 Y177.434 E282.28617
G1 X73.898 Y177.434 E282.36737
G1 X54.527 Y158.064 E284.87228
G1 X54.527 Y158.952 E284.95348
G1 X73.009 Y177.434 E287.34349
G1 X72.12 Y177.434 E287.42478
G1 X54.527 Y159.841 E289.69983
G1 X54.527 Y160.73 E289.78112
G1 X71.231 Y177.434 E291.94121
G1 X70.343 Y177.434 E292.02241
G1 X54.527 Y161.619 E294.0676
G1 X54.527 Y162.507 E294.1488
G1 X69.454 Y177.434 E296.07909
G1 X68.565 Y177.434 E296.16038
G1 X54.527 Y163.396 E297.97571
G1 X54.527 Y164.285 E298.057
G1 X67.677 Y177.434 E299.75744
G1 X66.788 Y177.434 E299.83873
G1 X54.527 Y165.173 E301.42427
G1 X54.527 Y166.062 E301.50556
G1 X65.899 Y177.434 E302.97614
G1 X65.011 Y177.434 E303.05734
G1 X54.527 Y166.951 E304.41302
G1 X54.527 Y167.839 E304.49422
G1 X64.122 Y177.434 E305.735
G1 X63.233 Y177.434 E305.81629
G1 X54.527 Y168.728 E306.94211
G1 X54.527 Y169.617 E307.0234
G1 X62.345 Y177.434 E308.03433
G1 X61.456 Y177.434 E308.11562
G1 X54.527 Y170.505 E309.01165
G1 X54.527 Y171.394 E309.09294
G1 X60.567 Y177.434 E309.87401
G1 X59.679 Y177.434 E309.95521
G1 X54.527 Y172.283 E310.62138
G1 X54.527 Y173.171 E310.70258
G1 X58.79 Y177.434 E311.25385
G1 X57.901 Y177.434 E311.33514
G1 X54.527 Y174.06 E311.77145
G1 X54.527 Y174.949 E311.85274
G1 X57.012 Y177.434 E312.17409
G1 X56.124 Y177.434 E312.25529
G1 X54.527 Y175.838 E312.46174
G1 X54.527 Y176.726 E312.54294
G1 X55.516 Y177.716 E312.6709
G1 E310.6709 F2400
G92 E0
G1 X55.516 Y177.716 Z2.35 F7800
G1 X100.583 Y48.621
G1 Z.35
G1 E2 F2400
;TYPE:Perimeter
;WIDTH:0.7
G1 F1800
G1 X54.058 Y48.621 E6.2305
G1 X54.058 Y2.097 E10.46091
G1 X100.583 Y2.097 E14.69141
G1 X100.583 Y25.359 E16.80661
G1 X100.583 Y48.561 E18.91636
G1 X100.583 Y48.561 F7800
G1 X101.207 Y49.246
G1 F1800
G1 X53.433 Y49.246 E23.26043
G1 X53.433 Y1.472 E27.6045
G1 X101.207 Y1.472 E31.94857
G1 X101.207 Y25.359 E34.1206
G1 X101.207 Y49.186 E36.28718
G1 X101.207 Y49.186 F7800
G1 X101.832 Y49.871
;TYPE:External perimeter
G1 F1800
G1 X52.809 Y49.871 E40.74482
G1 X52.809 Y.847 E45.20255
G1 X101.832 Y.847 E49.66019
G1 X101.832 Y25.359 E51.88905
G1 X101.832 Y49.811 E54.11246
G1 X101.437 Y49.87 F7800
G1 E52.11246 F2400
G92 E0
G1 Z2.35 F7800
G1 X100.395 Y3.555
G1 Z.35
G1 E2 F2400
;TYPE:Solid infill
;WIDTH:0.703508
G1 F1800
G1 X99.406 Y2.566 E2.12789
G1 X98.517 Y2.566 E2.20918
G1 X100.114 Y4.163 E2.4157
G1 X100.114 Y5.051 E2.4969
G1 X97.628 Y2.566 E2.81831
G1 X96.74 Y2.566 E2.89951
G1 X100.114 Y5.94 E3.33582
G1 X100.114 Y6.829 E3.41711
G1 X95.851 Y2.566 E3.96838
G1 X94.962 Y2.566 E4.04967
G1 X100.114 Y7.717 E4.71584
G1 X100.114 Y8.606 E4.79713
G1 X94.074 Y2.566 E5.5782
G1 X93.185 Y2.566 E5.65949
G1 X100.114 Y9.495 E6.55552
G1 X100.114 Y10.383 E6.63672
G1 X92.296 Y2.566 E7.64765
G1 X91.407 Y2.566 E7.72894
G1 X100.114 Y11.272 E8.85483
G1 X100.114 Y12.161 E8.93612
G1 X90.519 Y2.566 E10.1769
G1 X89.63 Y2.566 E10.25819
G1 X100.114 Y13.049 E11.61387
G1 X100.114 Y13.938 E11.69516
G1 X88.741 Y2.566 E13.1658
G1 X87.853 Y2.566 E13.247
G1 X100.114 Y14.827 E14.83254
G1 X100.114 Y15.716 E14.91383
G1 X86.964 Y2.566 E16.61433
G1 X86.075 Y2.566 E16.69562
G1 X100.114 Y16.604 E18.51102
G1 X100.114 Y17.493 E18.59231
G1 X85.187 Y2.566 E20.5226
G1 X84.298 Y2.566 E20.60389
G1 X100.114 Y18.382 E22.64915
G1 X100.114 Y19.27 E22.73035
G1 X83.409 Y2.566 E24.8905
G1 X82.521 Y2.566 E24.9717
G1 X100.114 Y20.159 E27.24675
G1 X100.114 Y21.048 E27.32804
G1 X81.632 Y2.566 E29.71805
G1 X80.743 Y2.566 E29.79934
G1 X100.114 Y21.936 E32.30425
G1 X100.114 Y22.825 E32.38554
G1 X79.855 Y2.566 E35.00535
G1 X78.966 Y2.566 E35.08664
G1 X100.114 Y23.714 E37.82141
G1 X100.114 Y24.602 E37.90261
G1 X78.077 Y2.566 E40.75227
G1 X77.188 Y2.566 E40.83356
G1 X100.114 Y25.491 E43.79819
G1 X100.114 Y26.38 E43.87948
G1 X76.3 Y2.566 E46.959
G1 X75.411 Y2.566 E47.04029
G1 X100.114 Y27.268 E50.23471
G1 X100.114 Y28.157 E50.316
G1 X74.522 Y2.566 E53.62538
G1 X73.634 Y2.566 E53.70658
G1 X100.114 Y29.046 E57.13086
G1 X100.114 Y29.935 E57.21215
G1 X72.745 Y2.566 E60.75139
G1 X71.856 Y2.566 E60.83268
G1 X100.114 Y30.823 E64.48682
G1 X100.114 Y31.712 E64.56811
G1 X70.968 Y2.566 E68.33714
G1 X70.079 Y2.566 E68.41843
G1 X100.114 Y32.601 E72.30243
G1 X100.114 Y33.489 E72.38363
G1 X69.19 Y2.566 E76.38252
G1 X68.302 Y2.566 E76.46372
G1 X100.114 Y34.378 E80.57751
G1 X100.114 Y35.267 E80.6588
G1 X67.413 Y2.566 E84.88755
G1 X66.524 Y2.566 E84.96884
G1 X100.114 Y36.155 E89.31249
G1 X100.114 Y37.044 E89.39378
G1 X65.636 Y2.566 E93.85233
G1 X64.747 Y2.566 E93.93362
G1 X100.114 Y37.933 E98.50713
G1 X100.114 Y38.821 E98.58833
G1 X63.858 Y2.566 E103.27673
G1 X62.969 Y2.566 E103.35802
G1 X100.114 Y39.71 E108.16139
G1 X100.114 Y40.599 E108.24268
G1 X62.081 Y2.566 E113.16094
G1 X61.192 Y2.566 E113.24223
G1 X100.114 Y41.487 E118.27539
G1 X100.114 Y42.376 E118.35668
G1 X60.303 Y2.566 E123.5048
G1 X59.415 Y2.566 E123.586
G1 X100.114 Y43.265 E128.84902
G1 X100.114 Y44.154 E128.93031
G1 X58.526 Y2.566 E134.30829
G1 X57.637 Y2.566 E134.38958
G1 X100.114 Y45.042 E139.88246
G1 X100.114 Y45.931 E139.96375
G1 X56.749 Y2.566 E145.57152
G1 X55.86 Y2.566 E145.65281
G1 X100.114 Y46.82 E151.37555
G1 X100.114 Y47.708 E151.45675
G1 X54.971 Y2.566 E157.29438
G1 X54.527 Y2.566 E157.33498
G1 X54.527 Y3.01 E157.37558
G1 X99.669 Y48.153 E163.21321
G1 X98.781 Y48.153 E163.29441
G1 X54.527 Y3.899 E169.01715
G1 X54.527 Y4.787 E169.09835
G1 X97.892 Y48.153 E174.70619
G1 X97.003 Y48.153 E174.78748
G1 X54.527 Y5.676 E180.28036
G1 X54.527 Y6.565 E180.36165
G1 X96.115 Y48.153 E185.73963
G1 X95.226 Y48.153 E185.82092
G1 X54.527 Y7.454 E191.08394
G1 X54.527 Y8.342 E191.16514
G1 X94.337 Y48.153 E196.31326
G1 X93.449 Y48.153 E196.39446
G1 X54.527 Y9.231 E201.42768
G1 X54.527 Y10.12 E201.50897
G1 X92.56 Y48.153 E206.42723
G1 X91.671 Y48.153 E206.50852
G1 X54.527 Y11.008 E211.31189
G1 X54.527 Y11.897 E211.39318
G1 X90.783 Y48.153 E216.08165
G1 X89.894 Y48.153 E216.16294
G1 X54.527 Y12.786 E220.73645
G1 X54.527 Y13.674 E220.81765
G1 X89.005 Y48.153 E225.27626
G1 X88.117 Y48.153 E225.35746
G1 X54.527 Y14.563 E229.70117
G1 X54.527 Y15.452 E229.78246
G1 X87.228 Y48.153 E234.01121
G1 X86.339 Y48.153 E234.0925
G1 X54.527 Y16.34 E238.20635
G1 X54.527 Y17.229 E238.28764
G1 X85.45 Y48.153 E242.28653
G1 X84.562 Y48.153 E242.36773
G1 X54.527 Y18.118 E246.25173
G1 X54.527 Y19.006 E246.33293
G1 X83.673 Y48.153 E250.10203
G1 X82.784 Y48.153 E250.18332
G1 X54.527 Y19.895 E253.83746
G1 X54.527 Y20.784 E253.91875
G1 X81.896 Y48.153 E257.45799
G1 X81.007 Y48.153 E257.53928
G1 X54.527 Y21.673 E260.96356
G1 X54.527 Y22.561 E261.04476
G1 X80.118 Y48.153 E264.35414
G1 X79.23 Y48.153 E264.43534
G1 X54.527 Y23.45 E267.62982
G1 X54.527 Y24.339 E267.71111
G1 X78.341 Y48.153 E270.79063
G1 X77.452 Y48.153 E270.87192
G1 X54.527 Y25.227 E273.83655
G1 X54.527 Y26.116 E273.91784
G1 X76.564 Y48.153 E276.76757
G1 X75.675 Y48.153 E276.84886
G1 X54.527 Y27.005 E279.58363
G1 X54.527 Y27.893 E279.66483
G1 X74.786 Y48.153 E282.2847
G1 X73.898 Y48.153 E282.3659
G1 X54.527 Y28.782 E284.87087
G1 X54.527 Y29.671 E284.95216
G1 X73.009 Y48.153 E287.34217
G1 X72.12 Y48.153 E287.42346
G1 X54.527 Y30.559 E289.69858
G1 X54.527 Y31.448 E289.77987
G1 X71.231 Y48.153 E291.94002
G1 X70.343 Y48.153 E292.02122
G1 X54.527 Y32.337 E294.06648
G1 X54.527 Y33.225 E294.14768
G1 X69.454 Y48.153 E296.07804
G1 X68.565 Y48.153 E296.15933
G1 X54.527 Y34.114 E297.97473
G1 X54.527 Y35.003 E298.05602
G1 X67.677 Y48.153 E299.75652
G1 X66.788 Y48.153 E299.83781
G1 X54.527 Y35.892 E301.42335
G1 X54.527 Y36.78 E301.50455
G1 X65.899 Y48.153 E302.97519
G1 X65.011 Y48.153 E303.05639
G1 X54.527 Y37.669 E304.41214
G1 X54.527 Y38.558 E304.49343
G1 X64.122 Y48.153 E305.73421
G1 X63.233 Y48.153 E305.8155
G1 X54.527 Y39.446 E306.94139
G1 X54.527 Y40.335 E307.02268
G1 X62.345 Y48.153 E308.03367
G1 X61.456 Y48.153 E308.11496
G1 X54.527 Y41.224 E309.01099
G1 X54.527 Y42.112 E309.09219
G1 X60.567 Y48.153 E309.87332
G1 X59.679 Y48.153 E309.95452
G1 X54.527 Y43.001 E310.62075
G1 X54.527 Y43.89 E310.70204
G1 X58.79 Y48.153 E311.25331
G1 X57.901 Y48.153 E311.3346
G1 X54.527 Y44.778 E311.77098
G1 X54.527 Y45.667 E311.85227
G1 X57.012 Y48.153 E312.17368
G1 X56.124 Y48.153 E312.25488
G1 X54.527 Y46.556 E312.4614
G1 X54.527 Y47.444 E312.5426
G1 X55.516 Y48.434 E312.67056
G1 E310.67056 F2400
G92 E0
G1 X55.516 Y48.434 Z2.35 F7800
G1 X127.274 Y.267
G1 Z.35
G1 E2 F2400
;TYPE:External perimeter
;WIDTH:0.534792
G1 F1800
G1 X127.274 Y.497 E2.01538
G1 X127.274 Y179.733 E14.0044
G1 X126.814 Y179.733 E14.03517
G1 X126.814 Y.267 E26.03958
G1 X127.214 Y.267 E26.06634
G1 X127.273 Y.663 F7800
G1 E24.06634 F2400
G92 E0
M107
;TYPE:Custom
; Filament-specific end gcode 
;END gcode for filament
M104 S0 ; turn off temperature
G28 X0  ; home X axis
M84     ; disable motors
; objects_info = {"objects":[]}
; filament used [mm] = 799.51
; filament used [cm3] = 1.92
; total filament used [g] = 0.00
; total filament cost = 0.00
; total filament used for wipe tower [g] = 0.00
; estimated printing time (normal mode) = 5m 10s
; estimated first layer printing time (normal mode) = 5m 10s

; prusaslicer_config = begin
; arc_fitting = disabled
; autoemit_temperature_commands = 1
; automatic_extrusion_widths = 0
; automatic_infill_combination = 0
; automatic_infill_combination_max_layer_height = 100%
; avoid_crossing_curled_overhangs = 0
; avoid_crossing_perimeters = 0
; avoid_crossing_perimeters_max_detour = 0
; bed_shape = 0x0,200x0,200x200,0x200
; bed_temperature = 0
; before_layer_gcode = 
; between_objects_gcode = 
; binary_gcode = 0
; bottom_fill_pattern = monotonic
; bottom_solid_layers = 3
; bottom_solid_min_thickness = 0
; bridge_acceleration = 0
; bridge_angle = 0
; bridge_fan_speed = 100
; bridge_flow_ratio = 1
; bridge_speed = 60
; brim_separation = 0
; brim_type = outer_only
; brim_width = 0
; chamber_minimal_temperature = 0
; chamber_temperature = 0
; color_change_gcode = M600
; colorprint_heights = 
; complete_objects = 0
; cooling = 1
; cooling_tube_length = 5
; cooling_tube_retraction = 91.5
; default_acceleration = 0
; deretract_speed = 0
; disable_fan_first_layers = 3
; dont_support_bridges = 1
; draft_shield = disabled
; duplicate_distance = 6
; elefant_foot_compensation = 0
; enable_dynamic_fan_speeds = 0
; enable_dynamic_overhang_speeds = 0
; end_filament_gcode = "; Filament-specific end gcode \n;END gcode for filament\n"
; end_gcode = M104 S0 ; turn off temperature\nG28 X0  ; home X axis\nM84     ; disable motors\n
; ensure_vertical_shell_thickness = enabled
; external_perimeter_acceleration = 0
; external_perimeter_extrusion_width = 0
; external_perimeter_speed = 50%
; external_perimeters_first = 0
; extra_loading_move = -2
; extra_perimeters = 1
; extra_perimeters_on_overhangs = 0
; extruder_clearance_height = 20
; extruder_clearance_radius = 20
; extruder_colour = ""
; extruder_offset = 0x0
; extrusion_axis = E
; extrusion_multiplier = 1
; extrusion_width = 0
; fan_always_on = 0
; fan_below_layer_time = 60
; filament_abrasive = 0
; filament_colour = #29B2B2
; filament_cooling_final_speed = 3.4
; filament_cooling_initial_speed = 2.2
; filament_cooling_moves = 4
; filament_cost = 0
; filament_density = 0
; filament_diameter = 1.75
; filament_infill_max_crossing_speed = 0
; filament_infill_max_speed = 0
; filament_load_time = 0
; filament_loading_speed = 28
; filament_loading_speed_start = 3
; filament_max_volumetric_speed = 0
; filament_minimal_purge_on_wipe_tower = 15
; filament_multitool_ramming = 0
; filament_multitool_ramming_flow = 10
; filament_multitool_ramming_volume = 10
; filament_notes = ""
; filament_purge_multiplier = 100%
; filament_ramming_parameters = "120 100 6.6 6.8 7.2 7.6 7.9 8.2 8.7 9.4 9.9 10.0| 0.05 6.6 0.45 6.8 0.95 7.8 1.45 8.3 1.95 9.7 2.45 10 2.95 7.6 3.45 7.6 3.95 7.6 4.45 7.6 4.95 7.6"
; filament_seam_gap_distance = 15%
; filament_settings_id = ""
; filament_shrinkage_compensation_xy = 0%
; filament_shrinkage_compensation_z = 0%
; filament_soluble = 0
; filament_spool_weight = 0
; filament_stamping_distance = 0
; filament_stamping_loading_speed = 20
; filament_toolchange_delay = 0
; filament_type = PLA
; filament_unload_time = 0
; filament_unloading_speed = 90
; filament_unloading_speed_start = 100
; fill_angle = 45
; fill_density = 20%
; fill_pattern = stars
; first_layer_acceleration = 0
; first_layer_acceleration_over_raft = 0
; first_layer_bed_temperature = 0
; first_layer_extrusion_width = 200%
; first_layer_height = 0.35
; first_layer_speed = 30
; first_layer_speed_over_raft = 30
; first_layer_temperature = 200
; full_fan_speed_layer = 0
; fuzzy_skin = none
; fuzzy_skin_point_dist = 0.8
; fuzzy_skin_thickness = 0.3
; gap_fill_enabled = 1
; gap_fill_speed = 20
; gcode_comments = 0
; gcode_flavor = reprap
; gcode_label_objects = disabled
; gcode_resolution = 0.0125
; gcode_substitutions = 
; high_current_on_filament_swap = 0
; idle_temperature = nil
; infill_acceleration = 0
; infill_anchor = 600%
; infill_anchor_max = 50
; infill_every_layers = 1
; infill_extruder = 1
; infill_extrusion_width = 0
; infill_first = 0
; infill_overlap = 25%
; infill_speed = 80
; interface_shells = 0
; ironing = 0
; ironing_flowrate = 15%
; ironing_spacing = 0.1
; ironing_speed = 15
; ironing_type = top
; layer_gcode = 
; layer_height = 0.3
; machine_limits_usage = time_estimate_only
; machine_max_acceleration_e = 10000,5000
; machine_max_acceleration_extruding = 1500,1250
; machine_max_acceleration_retracting = 1500,1250
; machine_max_acceleration_travel = 1500,1250
; machine_max_acceleration_x = 9000,1000
; machine_max_acceleration_y = 9000,1000
; machine_max_acceleration_z = 500,200
; machine_max_feedrate_e = 120,120
; machine_max_feedrate_x = 500,200
; machine_max_feedrate_y = 500,200
; machine_max_feedrate_z = 12,12
; machine_max_jerk_e = 2.5,2.5
; machine_max_jerk_x = 10,10
; machine_max_jerk_y = 10,10
; machine_max_jerk_z = 0.2,0.4
; machine_min_extruding_rate = 0,0
; machine_min_travel_rate = 0,0
; max_fan_speed = 100
; max_layer_height = 0
; max_print_height = 200
; max_print_speed = 80
; max_volumetric_extrusion_rate_slope_negative = 0
; max_volumetric_extrusion_rate_slope_positive = 0
; max_volumetric_speed = 0
; min_bead_width = 85%
; min_fan_speed = 35
; min_feature_size = 25%
; min_layer_height = 0.07
; min_print_speed = 10
; min_skirt_length = 0
; mmu_segmented_region_interlocking_depth = 0
; mmu_segmented_region_max_width = 0
; multimaterial_purging = 140
; notes = 
; nozzle_diameter = 0.4
; nozzle_high_flow = 0
; only_one_perimeter_first_layer = 0
; only_retract_when_crossing_perimeters = 0
; ooze_prevention = 0
; output_filename_format = [input_filename_base].gcode
; overhang_fan_speed_0 = 0
; overhang_fan_speed_1 = 0
; overhang_fan_speed_2 = 0
; overhang_fan_speed_3 = 0
; overhang_speed_0 = 15
; overhang_speed_1 = 15
; overhang_speed_2 = 20
; overhang_speed_3 = 25
; overhangs = 1
; parking_pos_retraction = 92
; pause_print_gcode = M601
; perimeter_acceleration = 0
; perimeter_extruder = 1
; perimeter_extrusion_width = 0
; perimeter_generator = arachne
; perimeter_speed = 30
; perimeters = 3
; physical_printer_settings_id = 
; post_process = 
; prefer_clockwise_movements = 0
; print_settings_id = 
; printer_model = 
; printer_notes = 
; printer_settings_id = 
; printer_technology = FFF
; raft_contact_distance = 0.1
; raft_expansion = 1.5
; raft_first_layer_density = 90%
; raft_first_layer_expansion = 3
; raft_layers = 0
; remaining_times = 0
; resolution = 0
; retract_before_travel = 2
; retract_before_wipe = 0%
; retract_layer_change = 0
; retract_length = 2
; retract_length_toolchange = 10
; retract_lift = 2
; retract_lift_above = 0
; retract_lift_below = 0
; retract_restart_extra = 0
; retract_restart_extra_toolchange = 0
; retract_speed = 40
; scarf_seam_entire_loop = 0
; scarf_seam_length = 20
; scarf_seam_max_segment_length = 1
; scarf_seam_on_inner_perimeters = 0
; scarf_seam_only_on_smooth = 1
; scarf_seam_placement = nowhere
; scarf_seam_start_height = 0%
; seam_gap_distance = 15%
; seam_position = aligned
; silent_mode = 1
; single_extruder_multi_material = 0
; single_extruder_multi_material_priming = 1
; skirt_distance = 6
; skirt_height = 1
; skirts = 1
; slice_closing_radius = 0.049
; slicing_mode = regular
; slowdown_below_layer_time = 5
; small_perimeter_speed = 15
; solid_infill_acceleration = 0
; solid_infill_below_area = 70
; solid_infill_every_layers = 0
; solid_infill_extruder = 1
; solid_infill_extrusion_width = 0
; solid_infill_speed = 20
; spiral_vase = 0
; staggered_inner_seams = 0
; standby_temperature_delta = -5
; start_filament_gcode = "; Filament gcode\n"
; start_gcode = G28 ; home all axes\nG1 Z5 F5000 ; lift nozzle\n
; support_material = 0
; support_material_angle = 0
; support_material_auto = 1
; support_material_bottom_contact_distance = 0
; support_material_bottom_interface_layers = -1
; support_material_buildplate_only = 0
; support_material_closing_radius = 2
; support_material_contact_distance = 0.2
; support_material_enforce_layers = 0
; support_material_extruder = 1
; support_material_extrusion_width = 0
; support_material_interface_contact_loops = 0
; support_material_interface_extruder = 1
; support_material_interface_layers = 3
; support_material_interface_pattern = rectilinear
; support_material_interface_spacing = 0
; support_material_interface_speed = 100%
; support_material_pattern = rectilinear
; support_material_spacing = 2.5
; support_material_speed = 60
; support_material_style = grid
; support_material_synchronize_layers = 0
; support_material_threshold = 0
; support_material_with_sheath = 1
; support_material_xy_spacing = 50%
; support_tree_angle = 40
; support_tree_angle_slow = 25
; support_tree_branch_diameter = 2
; support_tree_branch_diameter_angle = 5
; support_tree_branch_diameter_double_wall = 3
; support_tree_branch_distance = 1
; support_tree_tip_diameter = 0.8
; support_tree_top_rate = 15%
; temperature = 200
; template_custom_gcode = 
; thick_bridges = 1
; thin_walls = 1
; thumbnails = 
; thumbnails_format = PNG
; toolchange_gcode = 
; top_fill_pattern = monotonic
; top_infill_extrusion_width = 0
; top_one_perimeter_type = none
; top_solid_infill_acceleration = 0
; top_solid_infill_speed = 15
; top_solid_layers = 3
; top_solid_min_thickness = 0
; travel_acceleration = 0
; travel_lift_before_obstacle = 0
; travel_max_lift = 0
; travel_ramping_lift = 0
; travel_slope = 0
; travel_speed = 130
; travel_speed_z = 0
; use_firmware_retraction = 0
; use_relative_e_distances = 0
; use_volumetric_e = 0
; variable_layer_height = 1
; wall_distribution_count = 1
; wall_transition_angle = 10
; wall_transition_filter_deviation = 25%
; wall_transition_length = 100%
; wipe = 0
; wipe_into_infill = 0
; wipe_into_objects = 0
; wipe_tower = 0
; wipe_tower_acceleration = 0
; wipe_tower_bridging = 10
; wipe_tower_brim_width = 2
; wipe_tower_cone_angle = 0
; wipe_tower_extra_flow = 100%
; wipe_tower_extra_spacing = 100%
; wipe_tower_extruder = 0
; wipe_tower_no_sparse_layers = 0
; wipe_tower_width = 60
; wiping_volumes_matrix = 0,140,140,140,140,140,0,140,140,140,140,140,0,140,140,140,140,140,0,140,140,140,140,140,0
; wiping_volumes_use_custom_matrix = 0
; xy_size_compensation = 0
; z_offset = 0
; prusaslicer_config = end
